NIGHTJAR                
1 60535U 24149BV  26068.64552146  .00004278  00000+0  36344-3 0  9997
2 60535  97.6919 146.7603 0002393  83.3363 276.8132 14.98398810127967
STARLINK-34096          
1 64043U 25102X   26068.51159660  .00003409  00000+0  29332-3 0  9999
2 64043  70.0002 114.9789 0003792 267.5926  92.4799 14.98331160 45819
